CUTE-1 (CO-55)          
1 27844U 03031E   24303.49197221  .00001672  00000+0  75280-3 0  9999
2 27844  98.6792 308.6931 0010745 112.1460 248.0860 14.23584137106924
CUBESAT XI-IV (CO-57)   
1 27848U 03031J   24302.56667450  .00001398  00000+0  64013-3 0  9993
2 27848  98.6825 307.9454 0010446 129.6190 230.5912 14.22977471106502
CUBESAT XI-V            
1 28895U 05043F   24303.35268893  .00008034  00000+0  13732-2 0  9992
2 28895  98.2202  79.6358 0014323 294.8011  65.1703 14.69087221 14370
CUTE-1.7+APD II (CO-65) 
1 32785U 08021C   24303.14417690  .00019129  00000+0  15483-2 0  9994
2 32785  97.7740 267.7238 0008142 239.9505 120.0911 14.99763160895602
AAUSAT-II               
1 32788U 08021F   24302.92368643  .00094551  00000+0  32259-2 0  9997
2 32788  97.6036 284.6414 0008554  76.1072 284.1119 15.29923452898671
CANX-2                  
1 32790U 08021H   24303.15854211  .00014011  00000+0  11954-2 0  9999
2 32790  97.7831 266.3444 0009961 246.9947 113.0224 14.97785665895400
SEEDS II (CO-66)        
1 32791U 08021J   24302.41674498  .00034182  00000+0  21570-2 0  9991
2 32791  97.7051 273.3752 0003576 181.3970 178.7249 15.09004702896573
SWISSCUBE               
1 35932U 09051B   24303.12569462  .00005697  00000+0  11960-2 0  9999
2 35932  98.4501 189.0470 0005678 267.2425  92.8125 14.60018343802135
BEESAT-1                
1 35933U 09051C   24302.33732581  .00005046  00000+0  10700-2 0  9995
2 35933  98.4432 188.9688 0004221 287.5683  72.5055 14.59615081802049
ITUPSAT1                
1 35935U 09051E   24302.93003255  .00004991  00000+0  10840-2 0  9995
2 35935  98.4531 189.2796 0006558 291.2546  68.7952 14.58510625801757
TISAT 1                 
1 36799U 10035E   24303.15538005  .00028851  00000+0  19054-2 0  9996
2 36799  98.0703 198.6725 0005568 117.9402 242.2389 15.07362436777401
AEROCUBE 4.5A           
1 38767U 12048K   24303.21165615  .00055062  00000+0  23230-2 0  9994
2 38767  64.6553 241.2710 0111318 335.1287  24.4494 15.17430957280743
AEROCUBE 4.5B           
1 38768U 12048L   24303.30414441  .00123228  00000+0  24210-2 0  9998
2 38768  64.6479 153.4044 0074479 320.2122  39.3566 15.43642402281974
STRAND-1                
1 39090U 13009E   24302.48137893  .00001718  00000+0  60086-3 0  9997
2 39090  98.3794 127.1390 0008200 208.6800 151.3936 14.36393855611373
BRITE-AUSTRIA           
1 39091U 13009F   24303.46191448  .00001124  00000+0  40129-3 0  9990
2 39091  98.3842 127.3684 0009609 214.1188 145.9382 14.36025745611544
NEE-01 PEGASO           
1 39151U 13018B   24303.28726555  .00012460  00000+0  13662-2 0  9996
2 39151  98.0501  61.9886 0013595 325.0248  35.0073 14.87809064621902
ESTCUBE 1               
1 39161U 13021C   24303.13892758  .00009598  00000+0  13411-2 0  9994
2 39161  97.8142   5.5299 0009497 149.4303 210.7463 14.77799158616909
POPACS 1                
1 39268U 13055D   24303.42731010  .00078130  35282-6  11203-2 0  9996
2 39268  80.9779 355.4738 0348460  16.3121 344.8980 15.08549060582126
POPACS 2                
1 39269U 13055E   24303.41197046  .00027299  00000+0  60432-3 0  9993
2 39269  80.9978  92.9964 0524374 271.6623  82.4607 14.63311004576405
POPACS 3                
1 39270U 13055F   24303.52946601  .00018978  00000+0  50084-3 0  9992
2 39270  81.0042 148.2239 0612435  66.0564 300.3511 14.41070138572988
ZACUBE-1 (TSHEPISOSAT)  
1 39417U 13066B   24302.85156514  .00018570  00000+0  17865-2 0  9995
2 39417  97.7500 256.1594 0050466  77.8916 282.7950 14.92064969591496
WNISAT-1                
1 39423U 13066H   24302.99711435  .00004262  00000+0  81091-3 0  9992
2 39423  97.6664 126.5356 0167172 309.2337  49.4123 14.55985764580112
TRITON-1                
1 39427U 13066M   24303.50842509  .00015548  00000+0  20789-2 0  9996
2 39427  97.8375 217.2836 0100086  10.2141 350.1071 14.76099404586201
DELFI-N3XT              
1 39428U 13066N   24303.01698509  .00030084  00000+0  34930-2 0  9997
2 39428  97.8332 218.0878 0095971  15.1234 345.2813 14.82006833586067
GOMX-1                  
1 39430U 13066Q   24303.48355575  .00007802  00000+0  12574-2 0  9996
2 39430  97.7092 169.7067 0136377 184.7542 175.2378 14.65651608582706
CUBEBUG-2 (LO-74)       
1 39440U 13066AA  24303.11321080  .00015213  00000+0  16781-2 0  9990
2 39440  97.8234 244.1659 0065866 193.9775 165.9619 14.85978624589405
NEE-02 KRYSAOR          
1 39441U 13066AB  24303.09189478  .00009835  00000+0  11953-2 0  9990
2 39441  97.8321 239.4288 0070668 219.1072 140.5021 14.81904255588911
FUNCUBE-1 (AO-73)       
1 39444U 13066AE  24303.32414496  .00023031  00000+0  20147-2 0  9999
2 39444  97.7355 260.1661 0047341  55.5884 304.9799 14.95861218590727
UWE-3                   
1 39446U 13066AG  24302.39932275  .00015657  00000+0  16260-2 0  9993
2 39446  97.7950 249.5950 0058790 139.2032 221.3609 14.88720200588509
BRITE-CA1 (TORONTO)     
1 40020U 14033L   24303.33527461  .00004307  00000+0  68382-3 0  9993
2 40020  97.8964  75.9628 0082255  24.4697 336.0380 14.70367505554681
DUCHIFAT-1              
1 40021U 14033M   24302.93989417  .00049691  00000+0  27073-2 0  9998
2 40021  98.0994 294.3263 0012605  20.6319 339.5418 15.14159104564315
NANOSATC-BR1            
1 40024U 14033Q   24302.39833261  .00031267  00000+0  19959-2 0  9990
2 40024  98.0775 280.5943 0008856  82.1431 278.0801 15.08579975563292
QB50P1                  
1 40025U 14033R   24302.90786194  .00026408  00000+0  19226-2 0  9998
2 40025  98.0600 268.5256 0014976  89.3117 270.9823 15.03665283562942
QB50P2                  
1 40032U 14033Y   24302.86826272  .00025510  00000+0  19357-2 0  9991
2 40032  98.0175 259.2295 0012108  48.5639 311.6622 15.02138427562717
PERSEUS-M2              
1 40037U 14033AD  24303.51147447  .00007813  00000+0  77821-3 0  9996
2 40037  97.9340 234.9128 0014553 108.7712 251.5087 14.91806849562349
PERSEUS-M1              
1 40039U 14033AF  24303.28556569  .00009034  00000+0  90213-3 0  9998
2 40039  97.9113 230.3465 0014375 108.6374 251.6407 14.91657641562170
POLYITAN-1              
1 40042U 14033AJ  24303.20213081  .00036107  00000+0  23284-2 0  9997
2 40042  98.0851 273.5782 0014358  49.3568 310.8905 15.08117523563501
TIGRISAT                
1 40043U 14033AK  24303.17413587  .00010293  00000+0  13169-2 0  9996
2 40043  97.7086 100.3731 0053073 225.8832 133.8009 14.80533977557573
AEROCUBE 6A             
1 40045U 14033AM  24302.95478733  .00025836  00000+0  28354-2 0  9998
2 40045  97.6767 111.5067 0047191 200.6638 159.2672 14.86837446557645
AEROCUBE 6B             
1 40046U 14033AN  24302.90895362  .00025224  00000+0  27058-2 0  9996
2 40046  97.6734 110.2956 0045887 195.5848 164.3959 14.87811096557704
CANX-4                  
1 40055U 14034C   24303.46525980  .00005113  00000+0  69860-3 0  9998
2 40055  98.3822 143.8331 0014247 119.1801 241.0836 14.78981667556423
CANX-5                  
1 40056U 14034D   24302.99594711  .00005681  00000+0  77517-3 0  9992
2 40056  98.3828 143.3545 0014229 120.6560 239.6054 14.78988500556351
UKUBE-1                 
1 40074U 14037F   24303.54511888  .00025475  00000+0  21523-2 0  9999
2 40074  98.3497 242.1321 0004909  17.5890 342.5500 14.98063795558867
BRITE-PL2 (HEWELIUSZ)   
1 40119U 14049B   24303.03372863  .00010359  00000+0  10671-2 0  9991
2 40119  97.8872  42.2444 0014026 284.3199  75.6461 14.90376083552593
AEROCUBE 5C             
1 40965U 15058B   24302.72425437  .00015498  00000+0  13198-2 0  9998
2 40965  64.7693 311.0915 0190200 268.2831  89.6486 14.84965230276854
AEROCUBE 7              
1 40966U 15058C   24302.75214672  .00019405  00000+0  15746-2 0  9992
2 40966  64.7660 303.3925 0184101 267.9153  90.0866 14.87354005276976
FOX-1A (AO-85)          
1 40967U 15058D   24303.04020964  .00017014  00000+0  14782-2 0  9998
2 40967  64.7776 324.4812 0188377 263.9334  94.0283 14.84416907 24841
SINOD-D 1               
1 40968U 15058E   24303.01158286  .00021538  00000+0  17759-2 0  9998
2 40968  64.7771 315.9020 0181519 262.9765  95.0672 14.87048072 27697
SNAP-3 ALICE            
1 40970U 15058G   24302.63503691  .00059518  00000+0  34136-2 0  9999
2 40970  64.7677 265.2306 0142861 261.3422  97.1491 15.03912163 25790
LMRST-SAT               
1 40971U 15058H   24303.22326534  .00015119  00000+0  13124-2 0  9998
2 40971  64.7772 319.4774 0189800 265.2752  92.6660 14.84333384 24877
SNAP-3 EDDIE            
1 40972U 15058J   24302.27822743  .00051492  00000+0  29206-2 0  9998
2 40972  64.7650 259.4828 0143069 262.2948  96.1905 15.04319946 27849
PROPCUBE 3              
1 40973U 15058K   24303.40871448  .00017698  00000+0  14631-2 0  9997
2 40973  64.7702 305.3809 0185776 266.6232  91.3612 14.86518813 25969
BISONSAT                
1 40974U 15058L   24303.31006109  .00035864  00000+0  24156-2 0  9990
2 40974  64.7653 274.6067 0161242 264.4848  93.7857 14.96457220 25793
SNAP-3 JIMI             
1 40975U 15058M   24302.70713395  .00026970  00000+0  20474-2 0  9992
2 40975  64.7677 293.3190 0175579 265.8935  92.2093 14.90642982 24908
PROPCUBE 1 (FLORA)      
1 40976U 15058N   24302.51543344  .00015108  00000+0  13638-2 0  9992
2 40976  64.7770 337.8335 0188622 266.7784  91.1730 14.83048327 27558
SINOD-D 3               
1 40977U 15058P   24303.24693031  .00018634  00000+0  15971-2 0  9992
2 40977  64.7753 327.4522 0181615 265.8302  92.2034 14.85695659 25920
HORYU-4                 
1 41340U 16012D   24303.37311321  .00039953  00000+0  16455-2 0  9996
2 41340  31.0010 177.4155 0008922 273.2439  86.7182 15.22885215478572
RAVAN                   
1 41849U 16067B   24302.94437608  .00036809  00000+0  17418-2 0  9996
2 41849  98.0622 128.9909 0011096 294.9974  65.0106 15.19212004436257
CELTEE 1                
1 41850U 16067C   24302.74548212  .00018771  00000+0  11676-2 0  9998
2 41850  98.1079 119.4790 0002085  96.2743 263.8722 15.09678316435559
